CORVUS BC1              
1 42847U 17042Y   23117.17355283  .00002940  00000+0  27675-3 0  9991
2 42847  97.3912 321.6893 0009386  33.4486 326.7326 14.94536901315116
MIRATA                  
1 43015U 17073C   23116.91083977  .00011932  00000+0  77173-3 0  9991
2 43015  97.6397   6.2174 0214468 225.3166 133.0407 14.91295644293845
MAKERSAT 0              
1 43016U 17073D   23116.93766648  .00006160  00000+0  42500-3 0  9990
2 43016  97.6381   4.6765 0227597 233.6894 124.3117 14.87480529293691
CORVUS BC3              
1 43118U 18004H   23116.79529081  .00018007  00000+0  50822-3 0  9999
2 43118  97.3256 191.2664 0006054 336.6682  23.4287 15.36423286294145
CICERO 7                
1 43143U 18004AJ  23116.53676328  .00042385  00000+0  75594-3 0  9995
2 43143  97.3430 202.0165 0002590 307.8282  52.2735 15.49964479294743
GOMX-4B                 
1 43196U 18015E   23116.40476942  .00014417  00000+0  42798-3 0  9996
2 43196  97.5727 265.8307 0015087  34.9875 325.2356 15.34797406291004
GOMX-4A                 
1 43197U 18015F   23117.19735860  .00018161  00000+0  48917-3 0  9990
2 43197  97.5736 268.4932 0013802  28.6940 143.9655 15.37802057291250
AEROCUBE 12A            
1 43556U 18046C   23116.27837744  .00294740  00000+0  13674-2 0  9995
2 43556  51.6212  73.1565 0009358  99.8775 260.3284 15.81999019267843
AEROCUBE 12B            
1 43557U 18046D   23117.14681501  .00095208  00000+0  10441-2 0  9998
2 43557  51.6292  85.6728 0009025  82.4825 277.7194 15.62411656267708
CICERO 10               
1 43690U 18088A   23116.48500342  .00018562  00000+0  55537-3 0  9995
2 43690  85.0289 107.4676 0014237  75.8007 284.4822 15.34320669247542
PROXIMA II              
1 43696U 18088G   23116.73585447  .00022183  00000+0  61777-3 0  9995
2 43696  85.0227 103.1727 0015404  43.3851 316.8608 15.36550691247863
SIRION PATHFINDER-2     
1 43759U 18099B   23116.90856069  .00003253  00000+0  27721-3 0  9995
2 43759  97.5749 180.0624 0011777 287.9260  72.0678 14.98386982239944
CORVUS BC4              
1 43767U 18099K   23116.38574084  .00004161  00000+0  35869-3 0  9991
2 43767  97.5709 177.5889 0008953 301.2703  58.7642 14.97811417239775
