[{"OBJECT_NAME":"CORVUS BC1","OBJECT_ID":"2017-042Y","EPOCH":"2023-04-27T04:09:54.964512","MEAN_MOTION":14.94536901,"ECCENTRICITY":0.0009386,"INCLINATION":97.3912,"RA_OF_ASC_NODE":321.6893,"ARG_OF_PERICENTER":33.4486,"MEAN_ANOMALY":326.7326,"EPHEMERIS_TYPE":0,"CLASSIFICATION_TYPE":"U","NORAD_CAT_ID":42847,"ELEMENT_SET_NO":999,"REV_AT_EPOCH":31511,"BSTAR":0.00027675,"MEAN_MOTION_DOT":2.94e-5,"MEAN_MOTION_DDOT":0},{"OBJECT_NAME":"MIRATA","OBJECT_ID":"2017-073C","EPOCH":"2023-04-26T21:51:36.556128","MEAN_MOTION":14.91295644,"ECCENTRICITY":0.0214468,"INCLINATION":97.6397,"RA_OF_ASC_NODE":6.2174,"ARG_OF_PERICENTER":225.3166,"MEAN_ANOMALY":133.0407,"EPHEMERIS_TYPE":0,"CLASSIFICATION_TYPE":"U","NORAD_CAT_ID":43015,"ELEMENT_SET_NO":999,"REV_AT_EPOCH":29384,"BSTAR":0.00077173,"MEAN_MOTION_DOT":0.00011932,"MEAN_MOTION_DDOT":0},{"OBJECT_NAME":"MAKERSAT 0","OBJECT_ID":"2017-073D","EPOCH":"2023-04-26T22:30:14.383872","MEAN_MOTION":14.87480529,"ECCENTRICITY":0.0227597,"INCLINATION":97.6381,"RA_OF_ASC_NODE":4.6765,"ARG_OF_PERICENTER":233.6894,"MEAN_ANOMALY":124.3117,"EPHEMERIS_TYPE":0,"CLASSIFICATION_TYPE":"U","NORAD_CAT_ID":43016,"ELEMENT_SET_NO":999,"REV_AT_EPOCH":29369,"BSTAR":0.000425,"MEAN_MOTION_DOT":6.16e-5,"MEAN_MOTION_DDOT":0},{"OBJECT_NAME":"CORVUS BC3","OBJECT_ID":"2018-004H","EPOCH":"2023-04-26T19:05:13.125984","MEAN_MOTION":15.36423286,"ECCENTRICITY":0.0006054,"INCLINATION":97.3256,"RA_OF_ASC_NODE":191.2664,"ARG_OF_PERICENTER":336.6682,"MEAN_ANOMALY":23.4287,"EPHEMERIS_TYPE":0,"CLASSIFICATION_TYPE":"U","NORAD_CAT_ID":43118,"ELEMENT_SET_NO":999,"REV_AT_EPOCH":29414,"BSTAR":0.00050822,"MEAN_MOTION_DOT":0.00018007,"MEAN_MOTION_DDOT":0},{"OBJECT_NAME":"CICERO 7","OBJECT_ID":"2018-004AJ","EPOCH":"2023-04-26T12:52:56.347392","MEAN_MOTION":15.49964479,"ECCENTRICITY":0.000259,"INCLINATION":97.343,"RA_OF_ASC_NODE":202.0165,"ARG_OF_PERICENTER":307.8282,"MEAN_ANOMALY":52.2735,"EPHEMERIS_TYPE":0,"CLASSIFICATION_TYPE":"U","NORAD_CAT_ID":43143,"ELEMENT_SET_NO":999,"REV_AT_EPOCH":29474,"BSTAR":0.00075594,"MEAN_MOTION_DOT":0.00042385,"MEAN_MOTION_DDOT":0},{"OBJECT_NAME":"GOMX-4B","OBJECT_ID":"2018-015E","EPOCH":"2023-04-26T09:42:52.077888","MEAN_MOTION":15.34797406,"ECCENTRICITY":0.0015087,"INCLINATION":97.5727,"RA_OF_ASC_NODE":265.8307,"ARG_OF_PERICENTER":34.9875,"MEAN_ANOMALY":325.2356,"EPHEMERIS_TYPE":0,"CLASSIFICATION_TYPE":"U","NORAD_CAT_ID":43196,"ELEMENT_SET_NO":999,"REV_AT_EPOCH":29100,"BSTAR":0.00042798,"MEAN_MOTION_DOT":0.00014417,"MEAN_MOTION_DDOT":0},{"OBJECT_NAME":"GOMX-4A","OBJECT_ID":"2018-015F","EPOCH":"2023-04-27T04:44:11.783040","MEAN_MOTION":15.37802057,"ECCENTRICITY":0.0013802,"INCLINATION":97.5736,"RA_OF_ASC_NODE":268.4932,"ARG_OF_PERICENTER":28.694,"MEAN_ANOMALY":143.9655,"EPHEMERIS_TYPE":0,"CLASSIFICATION_TYPE":"U","NORAD_CAT_ID":43197,"ELEMENT_SET_NO":999,"REV_AT_EPOCH":29125,"BSTAR":0.00048917,"MEAN_MOTION_DOT":0.00018161,"MEAN_MOTION_DDOT":0},{"OBJECT_NAME":"AEROCUBE 12A","OBJECT_ID":"2018-046C","EPOCH":"2023-04-26T06:40:51.810816","MEAN_MOTION":15.81999019,"ECCENTRICITY":0.0009358,"INCLINATION":51.6212,"RA_OF_ASC_NODE":73.1565,"ARG_OF_PERICENTER":99.8775,"MEAN_ANOMALY":260.3284,"EPHEMERIS_TYPE":0,"CLASSIFICATION_TYPE":"U","NORAD_CAT_ID":43556,"ELEMENT_SET_NO":999,"REV_AT_EPOCH":26784,"BSTAR":0.0013674,"MEAN_MOTION_DOT":0.0029474,"MEAN_MOTION_DDOT":0},{"OBJECT_NAME":"AEROCUBE 12B","OBJECT_ID":"2018-046D","EPOCH":"2023-04-27T03:31:24.816864","MEAN_MOTION":15.62411656,"ECCENTRICITY":0.0009025,"INCLINATION":51.6292,"RA_OF_ASC_NODE":85.6728,"ARG_OF_PERICENTER":82.4825,"MEAN_ANOMALY":277.7194,"EPHEMERIS_TYPE":0,"CLASSIFICATION_TYPE":"U","NORAD_CAT_ID":43557,"ELEMENT_SET_NO":999,"REV_AT_EPOCH":26770,"BSTAR":0.0010441,"MEAN_MOTION_DOT":0.00095208,"MEAN_MOTION_DDOT":0},{"OBJECT_NAME":"CICERO 10","OBJECT_ID":"2018-088A","EPOCH":"2023-04-26T11:38:24.295488","MEAN_MOTION":15.34320669,"ECCENTRICITY":0.0014237,"INCLINATION":85.0289,"RA_OF_ASC_NODE":107.4676,"ARG_OF_PERICENTER":75.8007,"MEAN_ANOMALY":284.4822,"EPHEMERIS_TYPE":0,"CLASSIFICATION_TYPE":"U","NORAD_CAT_ID":43690,"ELEMENT_SET_NO":999,"REV_AT_EPOCH":24754,"BSTAR":0.00055537,"MEAN_MOTION_DOT":0.00018562,"MEAN_MOTION_DDOT":0},{"OBJECT_NAME":"PROXIMA II","OBJECT_ID":"2018-088G","EPOCH":"2023-04-26T17:39:37.826208","MEAN_MOTION":15.36550691,"ECCENTRICITY":0.0015404,"INCLINATION":85.0227,"RA_OF_ASC_NODE":103.1727,"ARG_OF_PERICENTER":43.3851,"MEAN_ANOMALY":316.8608,"EPHEMERIS_TYPE":0,"CLASSIFICATION_TYPE":"U","NORAD_CAT_ID":43696,"ELEMENT_SET_NO":999,"REV_AT_EPOCH":24786,"BSTAR":0.00061777,"MEAN_MOTION_DOT":0.00022183,"MEAN_MOTION_DDOT":0},{"OBJECT_NAME":"SIRION PATHFINDER-2","OBJECT_ID":"2018-099B","EPOCH":"2023-04-26T21:48:19.643616","MEAN_MOTION":14.98386982,"ECCENTRICITY":0.0011777,"INCLINATION":97.5749,"RA_OF_ASC_NODE":180.0624,"ARG_OF_PERICENTER":287.926,"MEAN_ANOMALY":72.0678,"EPHEMERIS_TYPE":0,"CLASSIFICATION_TYPE":"U","NORAD_CAT_ID":43759,"ELEMENT_SET_NO":999,"REV_AT_EPOCH":23994,"BSTAR":0.00027721,"MEAN_MOTION_DOT":3.253e-5,"MEAN_MOTION_DDOT":0},{"OBJECT_NAME":"CORVUS BC4","OBJECT_ID":"2018-099K","EPOCH":"2023-04-26T09:15:28.008576","MEAN_MOTION":14.97811417,"ECCENTRICITY":0.0008953,"INCLINATION":97.5709,"RA_OF_ASC_NODE":177.5889,"ARG_OF_PERICENTER":301.2703,"MEAN_ANOMALY":58.7642,"EPHEMERIS_TYPE":0,"CLASSIFICATION_TYPE":"U","NORAD_CAT_ID":43767,"ELEMENT_SET_NO":999,"REV_AT_EPOCH":23977,"BSTAR":0.00035869,"MEAN_MOTION_DOT":4.161e-5,"MEAN_MOTION_DDOT":0}]
